NORAD_CAT_ID,OBJECT_NAME,OBJECT_TYPE,EPOCH,MEAN_MOTION,ECCENTRICITY,INCLINATION,RA_OF_ASC_NODE,ARG_OF_PERICENTER,MEAN_ANOMALY,BSTAR,MEAN_MOTION_DOT,MEAN_MOTION_DDOT,TLE_LINE0,TLE_LINE1,TLE_LINE2,SEMIMAJOR_AXIS,PERIOD,APOGEE,PERIGEE,DECAYED
52658.0,STARLINK-4082,PAYLOAD,2023-10-10 21:36:58,15.08848048,0.0001261,53.2144,148.1347,108.3031,251.8099,0.00038169,5.793e-05,0.0,0 STARLINK-4082,1 52658U 22053C   23283.90067637  .00005793  00000-0  38169-3 0  9998,2 52658  53.2144 148.1347 0001261 108.3031 251.8099 15.08848048 78264,6917.856,95.437,540.593,538.848,0.0
52658.0,STARLINK-4082,PAYLOAD,2023-10-11 00:47:44,15.08850815,0.000128,53.2143,147.5395,109.631,250.482,0.00043945,6.715e-05,0.0,0 STARLINK-4082,1 52658U 22053C   23284.03315531  .00006715  00000-0  43945-3 0  9995,2 52658  53.2143 147.5395 0001280 109.6310 250.4820 15.08850815 78288,6917.847,95.437,540.598,538.827,0.0
52658.0,STARLINK-4082,PAYLOAD,2023-10-11 18:16:59,15.08838701,0.0001387,53.2147,144.2637,95.254,264.861,0.00021472,3.131e-05,0.0,0 STARLINK-4082,1 52658U 22053C   23284.76179758  .00003131  00000-0  21472-3 0  9994,2 52658  53.2147 144.2637 0001387  95.2540 264.8610 15.08838701 78396,6917.884,95.438,540.709,538.79,0.0
52658.0,STARLINK-4082,PAYLOAD,2023-10-11 21:27:45,15.08847204,0.0001294,53.215,143.6751,91.25,268.864,0.00030152,4.515e-05,0.0,0 STARLINK-4082,1 52658U 22053C   23284.89427897  .00004515  00000-0  30152-3 0  9990,2 52658  53.2150 143.6751 0001294  91.2500 268.8640 15.08847204 78417,6917.858,95.437,540.619,538.828,0.0
52658.0,STARLINK-4082,PAYLOAD,2023-10-12 19:43:09,15.08847282,0.0001308,53.2155,139.5119,90.4426,269.6716,0.0002788,4.153e-05,0.0,0 STARLINK-4082,1 52658U 22053C   23285.82163782  .00004153  00000-0  27880-3 0  9996,2 52658  53.2155 139.5119 0001308  90.4426 269.6716 15.08847282 78552,6917.858,95.437,540.628,538.818,0.0
52658.0,STARLINK-4082,PAYLOAD,2023-10-13 06:50:51,15.08850267,0.0001257,53.2154,137.4306,90.2313,269.8824,0.00021352,3.113e-05,0.0,0 STARLINK-4082,1 52658U 22053C   23286.28531451  .00003113  00000-0  21352-3 0  9992,2 52658  53.2154 137.4306 0001257  90.2313 269.8824 15.08850267 78629,6917.849,95.437,540.584,538.844,0.0
52658.0,STARLINK-4082,PAYLOAD,2023-10-13 17:58:33,15.08839612,0.000122,53.2152,135.3491,90.3526,269.7606,1.3901e-05,-6.7e-07,0.0,0 STARLINK-4082,1 52658U 22053C   23286.74899813 -.00000067  00000-0  13901-4 0  9990,2 52658  53.2152 135.3491 0001220  90.3526 269.7606 15.08839612 78691,6917.882,95.438,540.591,538.903,0.0
52658.0,STARLINK-4082,PAYLOAD,2023-10-13 21:09:19,15.08846669,0.0001252,53.2145,134.7555,93.3656,266.7479,0.00015739,2.218e-05,0.0,0 STARLINK-4082,1 52658U 22053C   23286.88147542  .00002218  00000-0  15739-3 0  9999,2 52658  53.2145 134.7555 0001252  93.3656 266.7479 15.08846669 78717,6917.86,95.437,540.591,538.859,0.0
52658.0,STARLINK-4082,PAYLOAD,2023-10-14 13:03:11,15.08837541,0.0001348,53.215,131.7823,87.8716,272.243,-3.873e-05,-9.04e-06,0.0,0 STARLINK-4082,1 52658U 22053C   23287.54387963 -.00000904  00000-0 -38730-4 0  9995,2 52658  53.2150 131.7823 0001348  87.8716 272.2430 15.08837541 78818,6917.888,95.438,540.685,538.82,0.0
52658.0,STARLINK-4082,PAYLOAD,2023-10-14 21:00:06,15.08838498,0.0001271,53.2145,130.2949,92.2061,267.9076,-5.0111e-05,-1.085e-05,0.0,0 STARLINK-4082,1 52658U 22053C   23287.87508068 -.00001085  00000-0 -50111-4 0  9990,2 52658  53.2145 130.2949 0001271  92.2061 267.9076 15.08838498 78867,6917.885,95.438,540.629,538.871,0.0
52658.0,STARLINK-4082,PAYLOAD,2023-10-15 06:32:25,15.0884255,0.0001235,53.216,128.5102,85.014,275.0993,5.1606e-05,5.34e-06,0.0,0 STARLINK-4082,1 52658U 22053C   23288.27252136  .00000534  00000-0  51606-4 0  9993,2 52658  53.2160 128.5102 0001235  85.0140 275.0993 15.08842550 78922,6917.873,95.437,540.592,538.883,0.0
52658.0,STARLINK-4082,PAYLOAD,2023-10-15 20:50:54,15.08834798,0.0001278,53.2158,125.8332,97.6288,262.485,0.00019362,2.794e-05,0.0,0 STARLINK-4082,1 52658U 22053C   23288.86868409  .00002794  00000-0  19362-3 0  9996,2 52658  53.2158 125.8332 0001278  97.6288 262.4850 15.08834798 79011,6917.896,95.438,540.645,538.877,0.0
52658.0,STARLINK-4082,PAYLOAD,2023-10-16 06:23:12,15.08846894,0.0001303,53.2159,124.0486,86.8336,273.2805,4.1571e-05,3.74e-06,0.0,0 STARLINK-4082,1 52658U 22053C   23289.26611999  .00000374  00000-0  41571-4 0  9991,2 52658  53.2159 124.0486 0001303  86.8336 273.2805 15.08846894 79072,6917.859,95.437,540.626,538.823,0.0
52658.0,STARLINK-4082,PAYLOAD,2023-10-16 12:44:45,15.08838966,0.0001345,53.2157,122.86,87.4303,272.6843,0.00016504,2.34e-05,0.0,0 STARLINK-4082,1 52658U 22053C   23289.53108367  .00002340  00000-0  16504-3 0  9993,2 52658  53.2157 122.8600 0001345  87.4303 272.6843 15.08838966 79112,6917.884,95.438,540.679,538.818,0.0
52658.0,STARLINK-4082,PAYLOAD,2023-10-16 17:30:55,15.08839783,0.0001344,53.2157,121.9679,87.5122,272.6024,0.00016597,2.354e-05,0.0,0 STARLINK-4082,1 52658U 22053C   23289.72980379  .00002354  00000-0  16597-3 0  9992,2 52658  53.2157 121.9679 0001344  87.5122 272.6024 15.08839783 79149,6917.881,95.438,540.676,538.816,0.0
52658.0,STARLINK-4082,PAYLOAD,2023-10-17 06:13:59,15.08845869,0.0001351,53.2157,119.5881,88.4084,271.7063,0.00011098,1.479e-05,0.0,0 STARLINK-4082,1 52658U 22053C   23290.25972019  .00001479  00000-0  11098-3 0  9992,2 52658  53.2157 119.5881 0001351  88.4084 271.7063 15.08845869 79226,6917.862,95.437,540.662,538.793,0.0
52658.0,STARLINK-4082,PAYLOAD,2023-10-17 18:57:05,15.0884324,0.0001282,53.2161,117.2087,88.5661,271.5478,0.00010889,1.446e-05,0.0,0 STARLINK-4082,1 52658U 22053C   23290.78964122  .00001446  00000-0  10889-3 0  9997,2 52658  53.2161 117.2087 0001282  88.5661 271.5478 15.08843240 79307,6917.87,95.437,540.622,538.849,0.0
52658.0,STARLINK-4082,PAYLOAD,2023-10-18 15:37:05,15.08841479,0.0001417,53.2153,113.3433,90.6826,269.4329,4.1212e-05,3.68e-06,0.0,0 STARLINK-4082,1 52658U 22053C   23291.65076253  .00000368  00000-0  41212-4 0  9990,2 52658  53.2153 113.3433 0001417  90.6826 269.4329 15.08841479 79434,6917.876,95.437,540.721,538.761,0.0
52658.0,STARLINK-4082,PAYLOAD,2023-10-19 12:17:06,15.08846828,0.0001846,53.2154,109.4763,94.1399,265.9804,4.5879e-05,4.42e-06,0.0,0 STARLINK-4082,1 52658U 22053C   23292.51187922  .00000442  00000-0  45879-4 0  9998,2 52658  53.2154 109.4763 0001846  94.1399 265.9804 15.08846828 79563,6917.86,95.437,541.002,538.447,0.0
52658.0,STARLINK-4082,PAYLOAD,2023-10-19 18:38:38,15.0885067,0.0001803,53.2149,108.2886,84.7763,275.3434,4.5037e-05,4.29e-06,0.0,0 STARLINK-4082,1 52658U 22053C   23292.77683592  .00000429  00000-0  45037-4 0  9991,2 52658  53.2149 108.2886 0001803  84.7763 275.3434 15.08850670 79602,6917.848,95.437,540.96,538.465,0.0
52658.0,STARLINK-4082,PAYLOAD,2023-10-20 12:07:53,15.08834566,0.0001292,53.2147,105.0181,84.4168,275.6972,5.9294e-05,6.56e-06,0.0,0 STARLINK-4082,1 52658U 22053C   23293.50548528  .00000656  00000-0  59294-4 0  9994,2 52658  53.2147 105.0181 0001292  84.4168 275.6972 15.08834566 79719,6917.897,95.438,540.656,538.868,0.0
52658.0,STARLINK-4082,PAYLOAD,2023-10-20 15:18:40,15.08835938,0.0001318,53.2149,104.4233,84.5376,275.5766,6.5731e-05,7.58e-06,0.0,0 STARLINK-4082,1 52658U 22053C   23293.63796456  .00000758  00000-0  65731-4 0  9999,2 52658  53.2149 104.4233 0001318  84.5376 275.5766 15.08835938 79739,6917.893,95.438,540.67,538.846,0.0
52658.0,STARLINK-4082,PAYLOAD,2023-10-21 13:34:03,15.08872006,0.0001477,53.217,100.258,98.7929,261.323,-0.00035003,-5.859e-05,0.0,0 STARLINK-4082,1 52658U 22053C   23294.56531495 -.00005859  00000-0 -35003-3 0  9999,2 52658  53.2170 100.2580 0001477  98.7929 261.3230 15.08872006 79870,6917.783,95.436,540.669,538.626,0.0
52658.0,STARLINK-4082,PAYLOAD,2023-10-21 19:55:35,15.08855638,0.000125,53.217,99.0685,73.9747,286.1382,1.4903e-05,-5.1e-07,0.0,0 STARLINK-4082,1 52658U 22053C   23294.83027326 -.00000051  00000-0  14903-4 0  9997,2 52658  53.2170  99.0685 0001250  73.9747 286.1382 15.08855638 79913,6917.833,95.437,540.562,538.833,0.0
52658.0,STARLINK-4082,PAYLOAD,2023-10-22 03:52:32,15.08838534,0.0001107,53.2177,97.5816,65.9485,294.1623,0.00010161,1.33e-05,0.0,0 STARLINK-4082,1 52658U 22053C   23295.16148285  .00001330  00000-0  10161-3 0  9993,2 52658  53.2177  97.5816 0001107  65.9485 294.1623 15.08838534 79968,6917.885,95.438,540.516,538.984,0.0
52658.0,STARLINK-4082,PAYLOAD,2023-10-22 18:11:00,15.08829187,0.0001358,53.2159,94.906,78.2184,281.8961,-5.6082e-05,-1.18e-05,0.0,0 STARLINK-4082,1 52658U 22053C   23295.75764951 -.00001180  00000-0 -56082-4 0  9990,2 52658  53.2159  94.9060 0001358  78.2184 281.8961 15.08829187 80055,6917.913,95.438,540.718,538.839,0.0
52658.0,STARLINK-4082,PAYLOAD,2023-10-23 03:43:19,15.08837146,0.0001352,53.2162,93.1215,79.4189,280.6956,-2.9004e-05,-7.49e-06,0.0,0 STARLINK-4082,1 52658U 22053C   23296.15508797 -.00000749  00000-0 -29004-4 0  9993,2 52658  53.2162  93.1215 0001352  79.4189 280.6956 15.08837146 80116,6917.889,95.438,540.689,538.819,0.0
52658.0,STARLINK-4082,PAYLOAD,2023-10-24 03:34:06,15.08848069,0.0001209,53.2157,88.6622,81.7077,278.4052,1.7787e-05,-5e-08,0.0,0 STARLINK-4082,1 52658U 22053C   23297.14868385 -.00000005  00000-0  17787-4 0  9994,2 52658  53.2157  88.6622 0001209  81.7077 278.4052 15.08848069 80268,6917.856,95.437,540.557,538.884,0.0
52658.0,STARLINK-4082,PAYLOAD,2023-10-25 14:32:35,15.0884327,0.0001514,53.2165,82.1211,76.524,283.5921,0.00010383,1.365e-05,0.0,0 STARLINK-4082,1 52658U 22053C   23298.60596930  .00001365  00000-0  10383-3 0  9993,2 52658  53.2165  82.1211 0001514  76.5240 283.5921 15.08843270 80488,6917.87,95.437,540.783,538.688,0.0
52658.0,STARLINK-4082,PAYLOAD,2023-10-26 14:23:22,15.08844802,0.0001579,53.2184,77.6611,78.3222,281.7947,6.2329e-05,7.04e-06,0.0,0 STARLINK-4082,1 52658U 22053C   23299.59956672  .00000704  00000-0  62329-4 0  9999,2 52658  53.2184  77.6611 0001579  78.3222 281.7947 15.08844802 80630,6917.866,95.437,540.823,538.638,0.0
